[{"OBJECT_NAME":"STARLINK-30554","OBJECT_ID":"2023-156W","EPOCH":"2026-03-09T13:13:19.079328","MEAN_MOTION":15.30186563,"ECCENTRICITY":0.00010802,"INCLINATION":53.1575,"RA_OF_ASC_NODE":168.6728,"ARG_OF_PERICENTER":101.2565,"MEAN_ANOMALY":258.8557,"EPHEMERIS_TYPE":0,"CLASSIFICATION_TYPE":"U","NORAD_CAT_ID":58048,"ELEMENT_SET_NO":999,"REV_AT_EPOCH":13496,"BSTAR":7.5244718e-5,"MEAN_MOTION_DOT":1.869e-5,"MEAN_MOTION_DDOT":0},{"OBJECT_NAME":"PEGASUS R\/B","OBJECT_ID":"2007-015B","EPOCH":"2026-03-09T10:58:33.801024","MEAN_MOTION":15.26741121,"ECCENTRICITY":0.00105976,"INCLINATION":97.9168,"RA_OF_ASC_NODE":31.3919,"ARG_OF_PERICENTER":317.6341,"MEAN_ANOMALY":42.4077,"EPHEMERIS_TYPE":0,"CLASSIFICATION_TYPE":"U","NORAD_CAT_ID":31305,"ELEMENT_SET_NO":999,"REV_AT_EPOCH":3383,"BSTAR":0.00044093522,"MEAN_MOTION_DOT":0.00011537,"MEAN_MOTION_DDOT":0}]
